ONEWEB-0320             
1 49190U 21083E   25097.16367404  .00000023  00000+0  25107-4 0  9994
2 49190  87.9100  62.1399 0001939  84.2132 275.9221 13.18684680172511
ONEWEB-0321             
1 49191U 21083F   25097.22058962 -.00000494  00000+0 -12457-2 0  9994
2 49191  87.9329   1.2244 0001769  68.7913 291.3409 13.20772341179289
ONEWEB-0324             
1 49193U 21083H   25097.30120086  .00000084  00000+0  18036-3 0  9995
2 49193  87.9101  62.0919 0001829  89.4349 270.6992 13.18685251172553
ONEWEB-0325             
1 49194U 21083J   25097.60944289  .00000115  00000+0  25832-3 0  9995
2 49194  87.9102  62.0476 0001954  80.1503 279.9850 13.18686223172603
ONEWEB-0326             
1 49195U 21083K   25097.16852124  .00000058  00000+0  11349-3 0  9997
2 49195  87.9099  62.1277 0002245  93.0910 267.0479 13.18683549172533
ONEWEB-0327             
1 49196U 21083L   25097.16827464  .00000005  00000+0 -19123-4 0  9999
2 49196  87.9100  62.1556 0002239  89.1978 270.9410 13.18686538172551
ONEWEB-0328             
1 49197U 21083M   25097.56176210 -.00000062  00000+0 -20500-3 0  9994
2 49197  87.8958  46.7804 0001823  82.7647 277.3690 13.13469480173716
